STARLINK-2202
1 17416C 21006D   21326.11961984 -.00030650  00000-0 -74409-3 0  3261
2 17416  97.4870  25.6662 0004540 248.3315 133.4106 15.41089534    14
